CCSDS_OMM_VERS = 2.0
CREATION_DATE  = 
ORIGINATOR     = 

OBJECT_NAME    = STARLINK-36994
OBJECT_ID      = 2026-039M
CENTER_NAME    = EARTH
REF_FRAME      = TEME
TIME_SYSTEM    = UTC
MEAN_ELEMENT_THEORY = SGP/SGP4

EPOCH          = 2026-03-06T20:00:00.999360
MEAN_MOTION    = 15.94416815
ECCENTRICITY   = .0001772
INCLINATION    = 42.9976
RA_OF_ASC_NODE = 72.5266
ARG_OF_PERICENTER = 261.3805
MEAN_ANOMALY   = 21.9142

EPHEMERIS_TYPE = 0
CLASSIFICATION_TYPE = U
NORAD_CAT_ID   = 67997
ELEMENT_SET_NO = 999
REV_AT_EPOCH   = 241
BSTAR          = -.41769E-2
MEAN_MOTION_DOT = -.16255E-1
MEAN_MOTION_DDOT = .75332E-3

CCSDS_OMM_VERS = 2.0
CREATION_DATE  = 
ORIGINATOR     = 

OBJECT_NAME    = STARLINK-36988
OBJECT_ID      = 2026-039N
CENTER_NAME    = EARTH
REF_FRAME      = TEME
TIME_SYSTEM    = UTC
MEAN_ELEMENT_THEORY = SGP/SGP4

EPOCH          = 2026-03-06T20:00:00.999360
MEAN_MOTION    = 15.94284744
ECCENTRICITY   = .0001902
INCLINATION    = 42.9977
RA_OF_ASC_NODE = 72.5325
ARG_OF_PERICENTER = 261.3289
MEAN_ANOMALY   = 19.6619

EPHEMERIS_TYPE = 0
CLASSIFICATION_TYPE = U
NORAD_CAT_ID   = 67998
ELEMENT_SET_NO = 999
REV_AT_EPOCH   = 241
BSTAR          = -.42646E-2
MEAN_MOTION_DOT = -.1647673E-1
MEAN_MOTION_DDOT = .77135E-3

CCSDS_OMM_VERS = 2.0
CREATION_DATE  = 
ORIGINATOR     = 

OBJECT_NAME    = STARLINK-36926
OBJECT_ID      = 2026-039P
CENTER_NAME    = EARTH
REF_FRAME      = TEME
TIME_SYSTEM    = UTC
MEAN_ELEMENT_THEORY = SGP/SGP4

EPOCH          = 2026-03-06T20:00:00.999360
MEAN_MOTION    = 15.94559467
ECCENTRICITY   = .0001825
INCLINATION    = 42.9976
RA_OF_ASC_NODE = 72.5209
ARG_OF_PERICENTER = 261.9174
MEAN_ANOMALY   = 23.7770

EPHEMERIS_TYPE = 0
CLASSIFICATION_TYPE = U
NORAD_CAT_ID   = 67999
ELEMENT_SET_NO = 999
REV_AT_EPOCH   = 241
BSTAR          = -.41463E-2
MEAN_MOTION_DOT = -.1625978E-1
MEAN_MOTION_DDOT = .75481E-3

CCSDS_OMM_VERS = 2.0
CREATION_DATE  = 
ORIGINATOR     = 

OBJECT_NAME    = STARLINK-36931
OBJECT_ID      = 2026-039Q
CENTER_NAME    = EARTH
REF_FRAME      = TEME
TIME_SYSTEM    = UTC
MEAN_ELEMENT_THEORY = SGP/SGP4

EPOCH          = 2026-03-06T20:00:00.999360
MEAN_MOTION    = 15.94698313
ECCENTRICITY   = .0001855
INCLINATION    = 42.9978
RA_OF_ASC_NODE = 72.5159
ARG_OF_PERICENTER = 261.5516
MEAN_ANOMALY   = 26.0704

EPHEMERIS_TYPE = 0
CLASSIFICATION_TYPE = U
NORAD_CAT_ID   = 68000
ELEMENT_SET_NO = 999
REV_AT_EPOCH   = 241
BSTAR          = -.40939E-2
MEAN_MOTION_DOT = -.1617547E-1
MEAN_MOTION_DDOT = .74866E-3

CCSDS_OMM_VERS = 2.0
CREATION_DATE  = 
ORIGINATOR     = 

OBJECT_NAME    = STARLINK-36903
OBJECT_ID      = 2026-039R
CENTER_NAME    = EARTH
REF_FRAME      = TEME
TIME_SYSTEM    = UTC
MEAN_ELEMENT_THEORY = SGP/SGP4

EPOCH          = 2026-03-06T20:00:00.999360
MEAN_MOTION    = 15.94839318
ECCENTRICITY   = .0001914
INCLINATION    = 42.9979
RA_OF_ASC_NODE = 72.5097
ARG_OF_PERICENTER = 261.3978
MEAN_ANOMALY   = 28.6837

EPHEMERIS_TYPE = 0
CLASSIFICATION_TYPE = U
NORAD_CAT_ID   = 68001
ELEMENT_SET_NO = 999
REV_AT_EPOCH   = 241
BSTAR          = -.40862E-2
MEAN_MOTION_DOT = -.1626676E-1
MEAN_MOTION_DDOT = .75754E-3

CCSDS_OMM_VERS = 2.0
CREATION_DATE  = 
ORIGINATOR     = 

OBJECT_NAME    = STARLINK-36898
OBJECT_ID      = 2026-039S
CENTER_NAME    = EARTH
REF_FRAME      = TEME
TIME_SYSTEM    = UTC
MEAN_ELEMENT_THEORY = SGP/SGP4

EPOCH          = 2026-03-06T20:00:00.999360
MEAN_MOTION    = 15.95116879
ECCENTRICITY   = .0001964
INCLINATION    = 42.9977
RA_OF_ASC_NODE = 72.4978
ARG_OF_PERICENTER = 263.0539
MEAN_ANOMALY   = 31.6585

EPHEMERIS_TYPE = 0
CLASSIFICATION_TYPE = U
NORAD_CAT_ID   = 68002
ELEMENT_SET_NO = 999
REV_AT_EPOCH   = 241
BSTAR          = -.40331E-2
MEAN_MOTION_DOT = -.1629709E-1
MEAN_MOTION_DDOT = .76229E-3

CCSDS_OMM_VERS = 2.0
CREATION_DATE  = 
ORIGINATOR     = 

OBJECT_NAME    = STARLINK-36862
OBJECT_ID      = 2026-039T
CENTER_NAME    = EARTH
REF_FRAME      = TEME
TIME_SYSTEM    = UTC
MEAN_ELEMENT_THEORY = SGP/SGP4

EPOCH          = 2026-03-06T20:00:00.999360
MEAN_MOTION    = 15.95395781
ECCENTRICITY   = .0001926
INCLINATION    = 42.9977
RA_OF_ASC_NODE = 72.4868
ARG_OF_PERICENTER = 264.2523
MEAN_ANOMALY   = 34.7723

EPHEMERIS_TYPE = 0
CLASSIFICATION_TYPE = U
NORAD_CAT_ID   = 68003
ELEMENT_SET_NO = 999
REV_AT_EPOCH   = 241
BSTAR          = -.3997E-2
MEAN_MOTION_DOT = -.1639527E-1
MEAN_MOTION_DDOT = .77297E-3

CCSDS_OMM_VERS = 2.0
CREATION_DATE  = 
ORIGINATOR     = 

OBJECT_NAME    = STARLINK-36888
OBJECT_ID      = 2026-039U
CENTER_NAME    = EARTH
REF_FRAME      = TEME
TIME_SYSTEM    = UTC
MEAN_ELEMENT_THEORY = SGP/SGP4

EPOCH          = 2026-03-06T20:00:00.999360
MEAN_MOTION    = 15.94973987
ECCENTRICITY   = .0001868
INCLINATION    = 42.9980
RA_OF_ASC_NODE = 72.5043
ARG_OF_PERICENTER = 263.9158
MEAN_ANOMALY   = 28.4108

EPHEMERIS_TYPE = 0
CLASSIFICATION_TYPE = U
NORAD_CAT_ID   = 68004
ELEMENT_SET_NO = 999
REV_AT_EPOCH   = 241
BSTAR          = -.40461E-2
MEAN_MOTION_DOT = -.1622472E-1
MEAN_MOTION_DDOT = .75496E-3

CCSDS_OMM_VERS = 2.0
CREATION_DATE  = 
ORIGINATOR     = 

OBJECT_NAME    = STARLINK-36910
OBJECT_ID      = 2026-039V
CENTER_NAME    = EARTH
REF_FRAME      = TEME
TIME_SYSTEM    = UTC
MEAN_ELEMENT_THEORY = SGP/SGP4

EPOCH          = 2026-03-06T20:00:00.999360
MEAN_MOTION    = 15.95255489
ECCENTRICITY   = .0001926
INCLINATION    = 42.9977
RA_OF_ASC_NODE = 72.4921
ARG_OF_PERICENTER = 265.4540
MEAN_ANOMALY   = 31.5430

EPHEMERIS_TYPE = 0
CLASSIFICATION_TYPE = U
NORAD_CAT_ID   = 68005
ELEMENT_SET_NO = 999
REV_AT_EPOCH   = 241
BSTAR          = -.40108E-2
MEAN_MOTION_DOT = -.1632827E-1
MEAN_MOTION_DDOT = .76605E-3

CCSDS_OMM_VERS = 2.0
CREATION_DATE  = 
ORIGINATOR     = 

OBJECT_NAME    = STARLINK-36889
OBJECT_ID      = 2026-039W
CENTER_NAME    = EARTH
REF_FRAME      = TEME
TIME_SYSTEM    = UTC
MEAN_ELEMENT_THEORY = SGP/SGP4

EPOCH          = 2026-03-06T20:00:00.999360
MEAN_MOTION    = 15.95524070
ECCENTRICITY   = .000182
INCLINATION    = 42.9978
RA_OF_ASC_NODE = 72.4810
ARG_OF_PERICENTER = 267.4205
MEAN_ANOMALY   = 33.7414

EPHEMERIS_TYPE = 0
CLASSIFICATION_TYPE = U
NORAD_CAT_ID   = 68006
ELEMENT_SET_NO = 999
REV_AT_EPOCH   = 241
BSTAR          = -.39316E-2
MEAN_MOTION_DOT = -.1624134E-1
MEAN_MOTION_DDOT = .76063E-3

CCSDS_OMM_VERS = 2.0
CREATION_DATE  = 
ORIGINATOR     = 

OBJECT_NAME    = STARLINK-36592
OBJECT_ID      = 2026-039X
CENTER_NAME    = EARTH
REF_FRAME      = TEME
TIME_SYSTEM    = UTC
MEAN_ELEMENT_THEORY = SGP/SGP4

EPOCH          = 2026-03-06T20:00:00.999360
MEAN_MOTION    = 15.95662637
ECCENTRICITY   = .0001864
INCLINATION    = 42.9976
RA_OF_ASC_NODE = 72.4762
ARG_OF_PERICENTER = 265.6875
MEAN_ANOMALY   = 37.5932

EPHEMERIS_TYPE = 0
CLASSIFICATION_TYPE = U
NORAD_CAT_ID   = 68007
ELEMENT_SET_NO = 999
REV_AT_EPOCH   = 241
BSTAR          = -.39114E-2
MEAN_MOTION_DOT = -.1627942E-1
MEAN_MOTION_DDOT = .765E-3

CCSDS_OMM_VERS = 2.0
CREATION_DATE  = 
ORIGINATOR     = 

OBJECT_NAME    = STARLINK-36911
OBJECT_ID      = 2026-039Y
CENTER_NAME    = EARTH
REF_FRAME      = TEME
TIME_SYSTEM    = UTC
MEAN_ELEMENT_THEORY = SGP/SGP4

EPOCH          = 2026-03-06T20:00:00.999360
MEAN_MOTION    = 15.95802381
ECCENTRICITY   = .0001988
INCLINATION    = 42.9978
RA_OF_ASC_NODE = 72.4705
ARG_OF_PERICENTER = 265.2022
MEAN_ANOMALY   = 40.3260

EPHEMERIS_TYPE = 0
CLASSIFICATION_TYPE = U
NORAD_CAT_ID   = 68008
ELEMENT_SET_NO = 999
REV_AT_EPOCH   = 241
BSTAR          = -.39101E-2
MEAN_MOTION_DOT = -.1639716E-1
MEAN_MOTION_DDOT = .77635E-3

CCSDS_OMM_VERS = 2.0
CREATION_DATE  = 
ORIGINATOR     = 

OBJECT_NAME    = STARLINK-36956
OBJECT_ID      = 2026-039Z
CENTER_NAME    = EARTH
REF_FRAME      = TEME
TIME_SYSTEM    = UTC
MEAN_ELEMENT_THEORY = SGP/SGP4

EPOCH          = 2026-03-06T20:00:00.999360
MEAN_MOTION    = 15.95928793
ECCENTRICITY   = .0001838
INCLINATION    = 42.9975
RA_OF_ASC_NODE = 72.4649
ARG_OF_PERICENTER = 266.1188
MEAN_ANOMALY   = 41.5458

EPHEMERIS_TYPE = 0
CLASSIFICATION_TYPE = U
NORAD_CAT_ID   = 68009
ELEMENT_SET_NO = 999
REV_AT_EPOCH   = 241
BSTAR          = -.3844E-2
MEAN_MOTION_DOT = -.1623322E-1
MEAN_MOTION_DDOT = .76308E-3

CCSDS_OMM_VERS = 2.0
CREATION_DATE  = 
ORIGINATOR     = 

OBJECT_NAME    = STARLINK-36953
OBJECT_ID      = 2026-039AA
CENTER_NAME    = EARTH
REF_FRAME      = TEME
TIME_SYSTEM    = UTC
MEAN_ELEMENT_THEORY = SGP/SGP4

EPOCH          = 2026-03-06T20:00:00.999360
MEAN_MOTION    = 15.96214408
ECCENTRICITY   = .0001984
INCLINATION    = 42.9975
RA_OF_ASC_NODE = 72.4529
ARG_OF_PERICENTER = 265.3385
MEAN_ANOMALY   = 46.9796

EPHEMERIS_TYPE = 0
CLASSIFICATION_TYPE = U
NORAD_CAT_ID   = 68010
ELEMENT_SET_NO = 999
REV_AT_EPOCH   = 241
BSTAR          = -.3867E-2
MEAN_MOTION_DOT = -.1658271E-1
MEAN_MOTION_DDOT = .79601E-3

CCSDS_OMM_VERS = 2.0
CREATION_DATE  = 
ORIGINATOR     = 

OBJECT_NAME    = STARLINK-36991
OBJECT_ID      = 2026-039AB
CENTER_NAME    = EARTH
REF_FRAME      = TEME
TIME_SYSTEM    = UTC
MEAN_ELEMENT_THEORY = SGP/SGP4

EPOCH          = 2026-03-06T20:00:00.999360
MEAN_MOTION    = 15.96339910
ECCENTRICITY   = .0001943
INCLINATION    = 42.9975
RA_OF_ASC_NODE = 72.4474
ARG_OF_PERICENTER = 264.9833
MEAN_ANOMALY   = 49.6185

EPHEMERIS_TYPE = 0
CLASSIFICATION_TYPE = U
NORAD_CAT_ID   = 68011
ELEMENT_SET_NO = 999
REV_AT_EPOCH   = 241
BSTAR          = -.38093E-2
MEAN_MOTION_DOT = -.1644972E-1
MEAN_MOTION_DDOT = .78528E-3

